{
    "links": {
        "self": "http://www.neowsapp.com/rest/v1/neo/3991657?api_key=iIulBulltgU6a56xZRHN4H3l9WmuAYTsLGpBGhQ2"
    },
    "id": "3991657",
    "neo_reference_id": "3991657",
    "name": "(2020 DD1)",
    "designation": "2020 DD1",
    "nasa_jpl_url": "http://ssd.jpl.nasa.gov/sbdb.cgi?sstr=3991657",
    "absolute_magnitude_h": 26.952,
    "estimated_diameter": {
        "kilometers": {
            "estimated_diameter_min": 0.0108181993,
            "estimated_diameter_max": 0.0241902289
        },
        "meters": {
            "estimated_diameter_min": 10.8181992643,
            "estimated_diameter_max": 24.1902289492
        },
        "miles": {
            "estimated_diameter_min": 0.0067221153,
            "estimated_diameter_max": 0.0150311068
        },
        "feet": {
            "estimated_diameter_min": 35.4927808744,
            "estimated_diameter_max": 79.3642707456
        }
    },
    "is_potentially_hazardous_asteroid": false,
    "close_approach_data": [
        {
            "close_approach_date": "2020-02-15",
            "close_approach_date_full": "2020-Feb-15 03:44",
            "epoch_date_close_approach": 1581738240000,
            "relative_velocity": {
                "kilometers_per_second": "7.8616185777",
                "kilometers_per_hour": "28301.8268796482",
                "miles_per_hour": "17585.6545964125"
            },
            "miss_distance": {
                "astronomical": "0.0407894239",
                "lunar": "15.8670858971",
                "kilometers": "6102010.933967093",
                "miles": "3791613.7749001634"
            },
            "orbiting_body": "Earth"
        }
    ],
    "orbital_data": {
        "orbit_id": "2",
        "orbit_determination_date": "2020-02-20 04:54:01",
        "first_observation_date": "2020-02-17",
        "last_observation_date": "2020-02-20",
        "data_arc_in_days": 3,
        "observations_used": 14,
        "orbit_uncertainty": "8",
        "minimum_orbit_intersection": ".0405093",
        "jupiter_tisserand_invariant": "4.689",
        "epoch_osculation": "2458897.5",
        "eccentricity": ".2859178954183278",
        "semi_major_axis": "1.39966554091522",
        "inclination": "12.30956472832981",
        "ascending_node_longitude": "150.3520038693509",
        "orbital_period": "604.8321007789317",
        "perihelion_distance": ".999476115167185",
        "perihelion_argument": "328.4027966941139",
        "aphelion_distance": "1.799854966663255",
        "perihelion_time": "2458870.091973532221",
        "mean_anomaly": "16.31343560583737",
        "mean_motion": ".5952065036501448",
        "equinox": "J2000",
        "orbit_class": {
            "orbit_class_type": "APO",
            "orbit_class_description": "Near-Earth asteroid orbits which cross the Earth’s orbit similar to that of 1862 Apollo",
            "orbit_class_range": "a (semi-major axis) > 1.0 AU; q (perihelion) < 1.017 AU"
        }
    },
    "is_sentry_object": false
}